#aV2010  2 13  0  0   .00000000      96 DD+AD WGS84 FIT  NGA
## 1570 518400.00000000   900.00000000 55240  .0000000000000
+   32     1  2  3  4  5  6  7  8  9 10 11 12 13 14 15 16 17
+         18 19 20 21 22 23 24 25 26 27 28 29 30 31 32  0  0
+          0  0  0  0  0  0  0  0  0  0  0  0  0  0  0  0  0
+          0  0  0  0  0  0  0  0  0  0  0  0  0  0  0  0  0
+          0  0  0  0  0  0  0  0  0  0  0  0  0  0  0  0  0
++         0  0  0  0  0  0  0  0  0  0  0  0  0  0  0  0  0
++         0  0  0  0  0  0  0  0  0  0  0  0  0  0  0  0  0
++         0  0  0  0  0  0  0  0  0  0  0  0  0  0  0  0  0
++         0  0  0  0  0  0  0  0  0  0  0  0  0  0  0  0  0
++         0  0  0  0  0  0  0  0  0  0  0  0  0  0  0  0  0
%c cc cc ccc ccc cccc cccc cccc cccc ccccc ccccc ccccc ccccc
%c cc cc ccc ccc cccc cccc cccc cccc ccccc ccccc ccccc ccccc
%f  0.0000000  0.000000000  0.00000000000  0.000000000000000
%f  0.0000000  0.000000000  0.00000000000  0.000000000000000
%i    0    0    0    0      0      0      0      0         0
%i    0    0    0    0      0      0      0      0         0
/*      NGA, ST. LOUIS,MO.                                  
/*   EPHEMERIS COMPUTED FROM  3 DAYS OF DATA                
/* CCCCCCCCCCCCCCCCCCCCCCCCCCCCCCCCCCCCCCCCCCCCCCCCCCCCCCCCC
/* CCCCCCCCCCCCCCCCCCCCCCCCCCCCCCCCCCCCCCCCCCCCCCCCCCCCCCCCC
*  2010  2 13  5 30   .00000000                                                 
P  1  19386.568278  18273.127129   -535.509451    -88.481838                    
V  1  -2164.740149   1552.511463 -31712.591816      -.037473                    
P  2 -20298.087312  13861.041552   9419.588699    226.115407                    
V  2 -12695.309194    475.630424 -28333.391902       .040859                    
P  3  10307.496387 -21666.486364  10655.264580    515.082573                    
V  3   2188.300824  14548.968122  26935.423932       .051631                    
P  4 -26016.924241   5281.641073  -3518.419302     13.749176                    
V  4   3128.398847  -4233.704346 -30613.512750       .091400                    
P  5  -8893.640279  12466.048030  21676.263650     -8.664516                    
V  5 -20460.246698 -18500.490091   2327.789795       .025346                    
P  6  13478.893305 -18429.178200  13650.491361    250.165661                    
V  6   -180.341085  17382.166003  24080.278148      -.050950                    
P  7 -15559.974214  -9194.560961  19509.340265      2.930130                    
V  7  23303.999359  -8285.075012  14523.243977      -.004981                    
P  8 -24435.633367  -1548.473697  10911.829421      3.219166                    
V  8  13015.291716  -4331.694766  27974.572212       .004081                    
P  9  -4843.256117  16502.930007 -20891.302705    105.753874                    
V  9 -23879.894647   7443.588446  11835.433336       .022493                    
P 10 -14783.687444   6377.824187  20995.449665    -35.323069                    
V 10 -19017.354518 -19235.323699  -7138.935642      -.009207                    
P 11  -1635.655158 -17744.416993 -19874.489813    -45.085217                    
V 11  22468.584859 -11299.483951   8715.975684      -.020632                    
P 12   7692.158183  20913.850030 -14502.879259   -150.763673                    
V 12 -14673.779224 -11315.813044 -23868.508150       .047906                    
P 13  -7143.586082 -17737.592546  18295.641730    306.496406                    
V 13   7676.977822 -22162.195954 -18370.115737      -.001598                    
P 14  15002.937633   -371.728187 -21764.265940     11.184919                    
V 14  -7011.850425  27011.081248  -5377.067886       .043143                    
P 15  -7126.505958  25407.472005   2465.354925   -306.913627                    
V 15  -2373.417948  -3682.945975  31490.865620       .029977                    
P 16  14605.590492  -6191.417681  21392.482974    -40.886095                    
V 16  18996.378150  19149.986111  -7188.440574      -.040172                    
P 17 -15715.764193   1668.526134 -21226.383054    129.370733                    
V 17   5921.269526 -26555.323526  -6650.391951       .031875                    
P 18  19835.288166  17894.525563  -1382.186251     48.553601                    
V 18   -771.680635   3723.586660  30947.432816       .026223                    
P 19   8202.099586 -25087.789397    596.865456    -15.357875                    
V 19   2801.186416   1622.464928  31876.415735      -.023324                    
P 20 -11139.105604 -21165.406452 -11748.087301     61.396687                    
V 20  12992.793546   7527.378740 -26125.859189      -.007399                    
P 21  19998.882951   7013.960113  16678.879961    -40.283771                    
V 21 -19094.685202   7570.700928  19451.066181      -.024861                    
P 22  21797.087741   8638.262662 -12393.529777    179.263821                    
V 22   9372.650835  13309.642849  25356.241777      -.008753                    
P 23  -1342.553903 -24384.475928  10032.719654    380.028950                    
V 23   5388.949141 -11951.398676 -28544.307658      -.009676                    
P 24  10980.657891  12531.283917  20736.151450    261.976751                    
V 24 -25142.914301   7447.088313   9099.523127       .032785                    
P 25   9932.825270  20351.485354 -14276.642713    914.879921                    
V 25 -15366.938112  -8811.249379 -23710.951665       .732072                    
P 26  11715.343318  10617.862935 -21772.169041    -18.077783                    
V 26  -8043.270166  25190.912576   8599.874698      -.036772                    
P 27  -8143.963258  16362.131236 -18538.595872    125.732209                    
V 27 -23940.490542   7354.656410  16512.787522       .032753                    
P 28 -21592.215317 -11552.179788 -10185.086253    -22.189038                    
V 28  -8084.148959 -11038.493704  28064.860094       .006211                    
P 29   6362.813492  20257.351447  16072.186151     97.587166                    
V 29  -6861.191514  19114.493294 -21463.347283       .029137                    
P 30  16357.297944  20018.684877  -6610.927790    219.092640                    
V 30  -7798.754505  -2998.948976 -30094.535096       .033563                    
P 31  25608.150429  -7308.567281   -832.545393    -51.662133                    
V 31   -601.537972   2503.291054 -31946.586442       .015499                    
P 32  -1714.433045 -19895.727420 -17313.191488     96.156327                    
V 32  16373.431561  15613.470015 -18855.451481      -.083404                    
EOF
